[{"OBJECT_NAME":"EXCITE","OBJECT_ID":"2018-099BP","EPOCH":"2026-03-09T16:45:15.060672","MEAN_MOTION":15.06036758,"ECCENTRICITY":0.0017626,"INCLINATION":97.4107,"RA_OF_ASC_NODE":111.3606,"ARG_OF_PERICENTER":337.4818,"MEAN_ANOMALY":22.5634,"EPHEMERIS_TYPE":0,"CLASSIFICATION_TYPE":"U","NORAD_CAT_ID":43819,"ELEMENT_SET_NO":999,"REV_AT_EPOCH":39677,"BSTAR":0.00019631388,"MEAN_MOTION_DOT":2.813e-5,"MEAN_MOTION_DDOT":0},{"OBJECT_NAME":"STARLINK-4728","OBJECT_ID":"2022-111W","EPOCH":"2026-03-09T17:17:43.556064","MEAN_MOTION":15.08835974,"ECCENTRICITY":0.00012614,"INCLINATION":53.2157,"RA_OF_ASC_NODE":273.7832,"ARG_OF_PERICENTER":97.0302,"MEAN_ANOMALY":263.0834,"EPHEMERIS_TYPE":0,"CLASSIFICATION_TYPE":"U","NORAD_CAT_ID":53793,"ELEMENT_SET_NO":999,"REV_AT_EPOCH":19369,"BSTAR":2.064662e-5,"MEAN_MOTION_DOT":4.1e-7,"MEAN_MOTION_DDOT":0}]
