EXCITE                  
1 43819U 18099BP  26068.69809098  .00002813  00000+0  19631-3 0  9999
2 43819  97.4107 111.3606 0017626 337.4818  22.5634 15.06036758396774
STARLINK-4728           
1 53793U 22111W   26068.72064301  .00000041  00000+0  20647-4 0  9996
2 53793  53.2157 273.7832 0001261  97.0302 263.0834 15.08835974193699
